NORAD_CAT_ID,OBJECT_NAME,OBJECT_TYPE,EPOCH,MEAN_MOTION,ECCENTRICITY,INCLINATION,RA_OF_ASC_NODE,ARG_OF_PERICENTER,MEAN_ANOMALY,BSTAR,MEAN_MOTION_DOT,MEAN_MOTION_DDOT,TLE_LINE0,TLE_LINE1,TLE_LINE2,SEMIMAJOR_AXIS,PERIOD,APOGEE,PERIGEE,DECAYED
54196.0,STARLINK-5237,PAYLOAD,2022-12-04 14:00:01,15.73218647,0.0003405,53.2145,318.1040000000001,8.4525,343.5599,-0.00055676,-0.0007813,0.0,0 STARLINK-5237,1 54196U 22141AR  22338.58334491 -.00078130  00000-0 -55676-3 0  9993,2 54196  53.2145 318.1040 0003405   8.4525 343.5599 15.73218647  1306,6727.842,91.532,351.99800000000016,347.416,0.0
54196.0,STARLINK-5237,PAYLOAD,2022-12-04 22:00:00,15.73161542,0.0003184,53.2148,316.4529,13.1056,67.8257,0.00064579,0.00090863,0.0,0 STARLINK-5237,1 54196U 22141AR  22338.91667824  .00090863  00000-0  64579-3 0  9996,2 54196  53.2148 316.4529 0003184  13.1056  67.8257 15.73161542  6222,6728.005,91.535,352.01199999999994,347.728,0.0
54196.0,STARLINK-5237,PAYLOAD,2022-12-05 14:00:01,15.73228256,0.0003378,53.2149,313.1548,10.457,248.4179,0.00018803,0.00025886,0.0,0 STARLINK-5237,1 54196U 22141AR  22339.58335648  .00025886  00000-0  18803-3 0  9998,2 54196  53.2149 313.1548 0003378  10.4570 248.4179 15.73228256  6321,6727.815,91.532,351.952,347.407,0.0
54196.0,STARLINK-5237,PAYLOAD,2022-12-05 15:57:14,15.73227383,0.0003493,53.2158,312.7518,18.827,341.2878,0.00036628,0.0005117,0.0,0 STARLINK-5237,1 54196U 22141AR  22339.66474952  .00051170  00000-0  36628-3 0  9999,2 54196  53.2158 312.7518 0003493  18.8270 341.2878 15.73227383  6115,6727.816999999999,91.532,352.032,347.332,0.0
54196.0,STARLINK-5237,PAYLOAD,2022-12-06 07:12:00,15.73245237,0.000324,53.2158,309.6064,14.353,345.7582,0.00026611,0.00036969,0.0,0 STARLINK-5237,1 54196U 22141AR  22340.30000854  .00036969  00000-0  26611-3 0  9998,2 54196  53.2158 309.6064 0003240  14.3530 345.7582 15.73245237  6441,6727.766,91.531,351.811,347.451,0.0
54196.0,STARLINK-5237,PAYLOAD,2022-12-06 10:14:58,15.73237006,0.0002545,53.2156,308.9772,14.3579,345.7513,-2.1767e-05,-3.681e-05,0.0,0 STARLINK-5237,1 54196U 22141AR  22340.42706380 -.00003681  00000-0 -21767-4 0  9993,2 54196  53.2156 308.9772 0002545  14.3579 345.7513 15.73237006  6233,6727.79,91.531,351.367,347.94199999999995,0.0
54196.0,STARLINK-5237,PAYLOAD,2022-12-06 14:49:25,15.73196846,0.0003786,53.2159,308.0351,23.4647,336.6545,-0.00013029,-0.00018874,0.0,0 STARLINK-5237,1 54196U 22141AR  22340.61765736 -.00018874  00000-0 -13029-3 0  9995,2 54196  53.2159 308.0351 0003786  23.4647 336.6545 15.73196846  6493,6727.904,91.533,352.316,347.222,0.0
54196.0,STARLINK-5237,PAYLOAD,2022-12-07 09:07:12,15.73221986,0.0003444,53.2153,304.2627,15.7762,344.3365,0.00044124,0.00061834,0.0,0 STARLINK-5237,1 54196U 22141AR  22341.38000607  .00061834  00000-0  44124-3 0  9991,2 54196  53.2153 304.2627 0003444  15.7762 344.3365 15.73221986  6618,6727.831999999999,91.532,352.015,347.38,0.0
54196.0,STARLINK-5237,PAYLOAD,2022-12-07 21:19:03,15.732296599999998,0.000293,53.2165,301.7484,7.5072,352.5992,0.00060603,0.00085422,0.0,0 STARLINK-5237,1 54196U 22141AR  22341.88823097  .00085422  00000-0  60603-3 0  9991,2 54196  53.2165 301.7484 0002930   7.5072 352.5992 15.73229660  6698,6727.811,91.531,351.647,347.704,0.0
54196.0,STARLINK-5237,PAYLOAD,2022-12-08 14:05:18,15.73275091,0.0003081,53.2152,298.2891,13.0238,347.0861,0.00050391,0.0007093999999999,0.0,0 STARLINK-5237,1 54196U 22141AR  22342.58701816  .00070940  00000-0  50391-3 0  9995,2 54196  53.2152 298.2891 0003081  13.0238 347.0861 15.73275091  6570,6727.681,91.529,351.619,347.473,0.0
54196.0,STARLINK-5237,PAYLOAD,2022-12-08 23:14:09,15.73293435,0.0002561,53.2161,296.4058,23.0729,337.0405,0.000298,0.0004158,0.0,0 STARLINK-5237,1 54196U 22141AR  22342.96816887  .00041580  00000-0  29800-3 0  9991,2 54196  53.2161 296.4058 0002561  23.0729 337.0405 15.73293435  6860,6727.629,91.528,351.217,347.771,0.0
54196.0,STARLINK-5237,PAYLOAD,2022-12-09 06:51:32,15.73287754,0.0003191999999999,53.216,294.8304,340.7793,19.3107,0.00035716,0.00050001,0.0,0 STARLINK-5237,1 54196U 22141AR  22343.28579598  .00050001  00000-0  35716-3 0  9993,2 54196  53.2160 294.8304 0003192 340.7793  19.3107 15.73287754  6682,6727.645,91.528,351.657,347.36300000000006,0.0
54196.0,STARLINK-5237,PAYLOAD,2022-12-10 10:18:16,15.73166632,0.0002957,53.2156,289.1751,7.3531,352.7532,0.00037818,0.0005272,0.0,0 STARLINK-5237,1 54196U 22141AR  22344.42936120  .00052720  00000-0  37818-3 0  9993,2 54196  53.2156 289.1751 0002957   7.3531 352.7532 15.73166632  7097,6727.99,91.535,351.845,347.866,0.0
54196.0,STARLINK-5237,PAYLOAD,2022-12-11 01:32:59,15.73928582,0.0005616,53.2155,286.0301,180.2928,179.80900000000003,-0.0030915,-0.0042705,0.0,0 STARLINK-5237,1 54196U 22141AR  22345.06457579 -.00427050  00000-0 -30915-2 0  9994,2 54196  53.2155 286.0301 0005616 180.2928 179.8090 15.73928582  7197,6725.819,91.491,351.461,343.907,0.0
54196.0,STARLINK-5237,PAYLOAD,2022-12-11 10:41:47,15.7326789,0.0001854,53.2144,284.1419,6.7416,353.3629,0.00015379,0.0002108,0.0,0 STARLINK-5237,1 54196U 22141AR  22345.44569159  .00021080  00000-0  15379-3 0  9993,2 54196  53.2144 284.1419 0001854   6.7416 353.3629 15.73267890  7250,6727.7019999999975,91.529,350.814,348.319,0.0
54196.0,STARLINK-5237,PAYLOAD,2022-12-12 00:25:06,15.73232108,0.0001496,53.217,281.3085,9.0522,351.0525,0.00023207,0.00032119,0.0,0 STARLINK-5237,1 54196U 22141AR  22346.01743995  .00032119  00000-0  23207-3 0  9993,2 54196  53.2170 281.3085 0001496   9.0522 351.0525 15.73232108  7347,6727.804,91.531,350.675,348.662,0.0
54196.0,STARLINK-5237,PAYLOAD,2022-12-13 02:20:20,15.73366714,0.000187,53.215,275.967,10.2077,349.898,-4.5977e-05,-7.116e-05,0.0,0 STARLINK-5237,1 54196U 22141AR  22347.09745652 -.00007116  00000-0 -45977-4 0  9994,2 54196  53.2150 275.9670 0001870  10.2077 349.8980 15.73366714  7519,6727.42,91.523,350.543,348.027,0.0
54196.0,STARLINK-5237,PAYLOAD,2022-12-13 05:23:15,15.73334241,0.0001657,53.2142,275.3399,8.3567,351.74800000000016,-0.00047759,-0.00067499,0.0,0 STARLINK-5237,1 54196U 22141AR  22347.22448209 -.00067499  00000-0 -47759-3 0  9996,2 54196  53.2142 275.3399 0001657   8.3567 351.7480 15.73334241  7536,6727.512,91.525,350.492,348.26300000000015,0.0
54196.0,STARLINK-5237,PAYLOAD,2022-12-13 23:41:00,15.7341408,0.000326,53.2141,271.5662,359.1608,0.9406,0.00030761,0.00043179,0.0,0 STARLINK-5237,1 54196U 22141AR  22347.98681487  .00043179  00000-0  30761-3 0  9998,2 54196  53.2141 271.5662 0003260 359.1608   0.9406 15.73414080  7655,6727.285,91.521,351.343,346.957,0.0
54196.0,STARLINK-5237,PAYLOAD,2022-12-14 01:12:39,15.73207011,0.0002713,53.2152,271.2554,15.6625,344.4479,0.00025861,0.00035843,0.0,0 STARLINK-5237,1 54196U 22141AR  22348.05045716  .00035843  00000-0  25861-3 0  9990,2 54196  53.2152 271.2554 0002713  15.6625 344.4479 15.73207011  7435,6727.875,91.533,351.565,347.915,0.0
54196.0,STARLINK-5237,PAYLOAD,2022-12-15 01:36:18,15.73281901,0.0002723,53.2151,266.2239,19.0989,341.0132,0.00025202,0.00035024,0.0,0 STARLINK-5237,1 54196U 22141AR  22349.06687665  .00035024  00000-0  25202-3 0  9997,2 54196  53.2151 266.2239 0002723  19.0989 341.0132 15.73281901  7822,6727.6619999999975,91.528,351.3590000000001,347.695,0.0
54196.0,STARLINK-5237,PAYLOAD,2022-12-15 07:42:12,15.73278927,0.0002391,53.2149,264.9671,16.2876,343.8221,-0.0001440999999999,-0.00020867,0.0,0 STARLINK-5237,1 54196U 22141AR  22349.32097977 -.00020867  00000-0 -14410-3 0  9997,2 54196  53.2149 264.9671 0002391  16.2876 343.8221 15.73278927  7866,6727.67,91.529,351.144,347.927,0.0
54196.0,STARLINK-5237,PAYLOAD,2022-12-15 18:22:33,15.7324935,0.0002715,53.2144,262.766,19.6626,340.4499,0.00010702,0.00014457,0.0,0 STARLINK-5237,1 54196U 22141AR  22349.76566863  .00014457  00000-0  10702-3 0  9996,2 54196  53.2144 262.7660 0002715  19.6626 340.4499 15.73249350  7931,6727.754,91.53,351.446,347.793,0.0
54196.0,STARLINK-5237,PAYLOAD,2022-12-16 00:28:29,15.73218094,0.0002728,53.2139,261.508,15.5609,344.5495,6.5308e-05,8.561e-05,0.0,0 STARLINK-5237,1 54196U 22141AR  22350.01978080  .00008561  00000-0  65308-4 0  9996,2 54196  53.2139 261.5080 0002728  15.5609 344.5495 15.73218094  7974,6727.844,91.532,351.5440000000001,347.87300000000016,0.0
54196.0,STARLINK-5237,PAYLOAD,2022-12-16 11:08:50,15.73211053,0.0002386,53.2141,259.3069,0.6601,359.4422,9.3463e-05,0.00012522,0.0,0 STARLINK-5237,1 54196U 22141AR  22350.46447623  .00012522  00000-0  93463-4 0  9994,2 54196  53.2141 259.3069 0002386   0.6601 359.4422 15.73211053  7812,6727.864000000001,91.533,351.334,348.12300000000016,0.0
54196.0,STARLINK-5237,PAYLOAD,2022-12-16 17:14:45,15.73251324,0.0002763,53.2141,258.0493,11.0926,349.0155,0.0002675,0.00037174,0.0,0 STARLINK-5237,1 54196U 22141AR  22350.71858009  .00037174  00000-0  26750-3 0  9990,2 54196  53.2141 258.0493 0002763  11.0926 349.0155 15.73251324  8087,6727.749,91.53,351.473,347.755,0.0
54196.0,STARLINK-5237,PAYLOAD,2022-12-16 18:46:15,15.73193869,0.0002623,53.214,257.7351,19.4334,340.6786,9.8358e-05,0.00013202,0.0,0 STARLINK-5237,1 54196U 22141AR  22350.78212449  .00013202  00000-0  98358-4 0  9999,2 54196  53.2140 257.7351 0002623  19.4334 340.6786 15.73193869  7866,6727.913000000001,91.534,351.542,348.01300000000015,0.0
54196.0,STARLINK-5237,PAYLOAD,2022-12-17 03:55:08,15.73225281,0.0002672,53.214,255.8493,17.737000000000005,342.3743,0.00027449,0.00038123,0.0,0 STARLINK-5237,1 54196U 22141AR  22351.16329043  .00038123  00000-0  27449-3 0  9992,2 54196  53.2140 255.8493 0002672  17.7370 342.3743 15.73225281  8156,6727.823,91.532,351.486,347.89,0.0
54196.0,STARLINK-5237,PAYLOAD,2022-12-17 08:29:25,15.7373368,0.0003686,53.2137,254.9041,348.9626,11.1312,0.0027728,0.00417983,0.0,0 STARLINK-5237,1 54196U 22141AR  22351.35377120  .00417983  00000-0  27728-2 0  9996,2 54196  53.2137 254.9041 0003686 348.9626  11.1312 15.73733680  7957,6726.374,91.502,350.718,345.76,0.0
